{
  "links" : {
    "next" : "https://api.nasa.gov/neo/rest/v1/neo/browse?page=22&size=20&api_key=jqAGvNAwUIBu4fl9FSOjdm3V4F7hIglRzI6pdX9d",
    "prev" : "https://api.nasa.gov/neo/rest/v1/neo/browse?page=20&size=20&api_key=jqAGvNAwUIBu4fl9FSOjdm3V4F7hIglRzI6pdX9d",
    "self" : "https://api.nasa.gov/neo/rest/v1/neo/browse?page=21&size=20&api_key=jqAGvNAwUIBu4fl9FSOjdm3V4F7hIglRzI6pdX9d"
  },
  "page" : {
    "size" : 20,
    "total_elements" : 20750,
    "total_pages" : 1038,
    "number" : 21
  },
  "near_earth_objects" : [ {
    "links" : {
      "self" : "https://api.nasa.gov/neo/rest/v1/neo/3289125?api_key=jqAGvNAwUIBu4fl9FSOjdm3V4F7hIglRzI6pdX9d"
    },
    "neo_reference_id" : "3289125",
    "name" : "(2005 QK76)",
    "designation" : "2005 QK76",
    "nasa_jpl_url" : "http://ssd.jpl.nasa.gov/sbdb.cgi?sstr=3289125",
    "absolute_magnitude_h" : 25.1,
    "estimated_diameter" : {
      "kilometers" : {
        "estimated_diameter_min" : 0.0253837029,
        "estimated_diameter_max" : 0.0567596853
      },
      "meters" : {
        "estimated_diameter_min" : 25.3837029364,
        "estimated_diameter_max" : 56.7596852866
      },
      "miles" : {
        "estimated_diameter_min" : 0.0157726969,
        "estimated_diameter_max" : 0.0352688224
      },
      "feet" : {
        "estimated_diameter_min" : 83.279867942,
        "estimated_diameter_max" : 186.2194458756
      }
    },
    "is_potentially_hazardous_asteroid" : false,
    "close_approach_data" : [ {
      "close_approach_date" : "2005-08-27",
      "epoch_date_close_approach" : 1125126000000,
      "relative_velocity" : {
        "kilometers_per_second" : "19.1604716008",
        "kilometers_per_hour" : "68977.6977629063",
        "miles_per_hour" : "42860.0589238458"
      },
      "miss_distance" : {
        "astronomical" : "0.0323639202",
        "lunar" : "12.5895652771",
        "kilometers" : "4841574",
        "miles" : "3008414.5"
      },
      "orbiting_body" : "Earth"
    } ],
    "orbital_data" : {
      "orbit_id" : "8",
      "orbit_determination_date" : "2017-04-06 09:10:37",
      "first_observation_date" : "2005-08-30",
      "last_observation_date" : "2005-08-31",
      "data_arc_in_days" : 1,
      "observations_used" : 14,
      "orbit_uncertainty" : "9",
      "minimum_orbit_intersection" : ".0017792",
      "jupiter_tisserand_invariant" : "4.540",
      "epoch_osculation" : "2453613.5",
      "eccentricity" : ".5177039966575181",
      "semi_major_axis" : "1.397845994894943",
      "inclination" : "22.87452825951357",
      "ascending_node_longitude" : "337.589856501927",
      "orbital_period" : "603.6530740039211",
      "perihelion_distance" : ".6741755366261264",
      "perihelion_argument" : "266.1103169460299",
      "aphelion_distance" : "2.12151645316376",
      "perihelion_time" : "2453552.815384359130",
      "mean_anomaly" : "36.19042554659681",
      "mean_motion" : ".5963690329814532",
      "equinox" : "J2000",
      "orbit_class" : {
        "orbit_class_type" : "APO",
        "orbit_class_range" : "a (semi-major axis) > 1.0 AU; q (perihelion) < 1.017 AU",
        "orbit_class_description" : "Near-Earth asteroid orbits which cross the Earth’s orbit similar to that of 1862 Apollo"
      }
    },
    "is_sentry_object" : true,
    "sentry_data" : "https://api.nasa.gov/neo/rest/v1/neo/sentry/3289125?api_key=jqAGvNAwUIBu4fl9FSOjdm3V4F7hIglRzI6pdX9d"
  }, {
    "links" : {
      "self" : "https://api.nasa.gov/neo/rest/v1/neo/3289177?api_key=jqAGvNAwUIBu4fl9FSOjdm3V4F7hIglRzI6pdX9d"
    },
    "neo_reference_id" : "3289177",
    "name" : "(2005 RA)",
    "designation" : "2005 RA",
    "nasa_jpl_url" : "http://ssd.jpl.nasa.gov/sbdb.cgi?sstr=3289177",
    "absolute_magnitude_h" : 22.2,
    "estimated_diameter" : {
      "kilometers" : {
        "estimated_diameter_min" : 0.096506147,
        "estimated_diameter_max" : 0.2157943048
      },
      "meters" : {
        "estimated_diameter_min" : 96.5061469579,
        "estimated_diameter_max" : 215.7943048444
      },
      "miles" : {
        "estimated_diameter_min" : 0.059966121,
        "estimated_diameter_max" : 0.134088323
      },
      "feet" : {
        "estimated_diameter_min" : 316.6212271853,
        "estimated_diameter_max" : 707.9865871058
      }
    },
    "is_potentially_hazardous_asteroid" : false,
    "close_approach_data" : [ {
      "close_approach_date" : "2005-09-08",
      "epoch_date_close_approach" : 1126162800000,
      "relative_velocity" : {
        "kilometers_per_second" : "15.3266824067",
        "kilometers_per_hour" : "55176.0566642708",
        "miles_per_hour" : "34284.255875641"
      },
      "miss_distance" : {
        "astronomical" : "0.0670067118",
        "lunar" : "26.065612793",
        "kilometers" : "10024062",
        "miles" : "6228663.5"
      },
      "orbiting_body" : "Earth"
    } ],
    "orbital_data" : {
      "orbit_id" : "10",
      "orbit_determination_date" : "2017-04-06 09:10:34",
      "first_observation_date" : "2005-09-01",
      "last_observation_date" : "2005-09-14",
      "data_arc_in_days" : 13,
      "observations_used" : 44,
      "orbit_uncertainty" : "8",
      "minimum_orbit_intersection" : ".0396553",
      "jupiter_tisserand_invariant" : "3.054",
      "epoch_osculation" : "2453615.5",
      "eccentricity" : ".6664825052611996",
      "semi_major_axis" : "2.595882223536596",
      "inclination" : "4.460568187519002",
      "ascending_node_longitude" : "321.899799608288",
      "orbital_period" : "1527.657172648939",
      "perihelion_distance" : ".8657721358309124",
      "perihelion_argument" : "80.2556776475418",
      "aphelion_distance" : "4.32599231124228",
      "perihelion_time" : "2453660.179109195587",
      "mean_anomaly" : "349.4711460147037",
      "mean_motion" : ".2356549666020711",
      "equinox" : "J2000",
      "orbit_class" : {
        "orbit_class_type" : "APO",
        "orbit_class_range" : "a (semi-major axis) > 1.0 AU; q (perihelion) < 1.017 AU",
        "orbit_class_description" : "Near-Earth asteroid orbits which cross the Earth’s orbit similar to that of 1862 Apollo"
      }
    },
    "is_sentry_object" : false
  }, {
    "links" : {
      "self" : "https://api.nasa.gov/neo/rest/v1/neo/3289351?api_key=jqAGvNAwUIBu4fl9FSOjdm3V4F7hIglRzI6pdX9d"
    },
    "neo_reference_id" : "3289351",
    "name" : "(2005 RJ)",
    "designation" : "2005 RJ",
    "nasa_jpl_url" : "http://ssd.jpl.nasa.gov/sbdb.cgi?sstr=3289351",
    "absolute_magnitude_h" : 22.3,
    "estimated_diameter" : {
      "kilometers" : {
        "estimated_diameter_min" : 0.0921626549,
        "estimated_diameter_max" : 0.2060819612
      },
      "meters" : {
        "estimated_diameter_min" : 92.1626548503,
        "estimated_diameter_max" : 206.0819612321
      },
      "miles" : {
        "estimated_diameter_min" : 0.057267201,
        "estimated_diameter_max" : 0.1280533543
      },
      "feet" : {
        "estimated_diameter_min" : 302.370924539,
        "estimated_diameter_max" : 676.1219416887
      }
    },
    "is_potentially_hazardous_asteroid" : false,
    "close_approach_data" : [ {
      "close_approach_date" : "2005-09-08",
      "epoch_date_close_approach" : 1126162800000,
      "relative_velocity" : {
        "kilometers_per_second" : "13.687004365",
        "kilometers_per_hour" : "49273.2157141526",
        "miles_per_hour" : "30616.4600641633"
      },
      "miss_distance" : {
        "astronomical" : "0.0477328891",
        "lunar" : "18.5680942535",
        "kilometers" : "7140738.5",
        "miles" : "4437049.5"
      },
      "orbiting_body" : "Earth"
    } ],
    "orbital_data" : {
      "orbit_id" : "7",
      "orbit_determination_date" : "2017-04-06 09:10:34",
      "first_observation_date" : "2005-09-01",
      "last_observation_date" : "2005-09-08",
      "data_arc_in_days" : 7,
      "observations_used" : 18,
      "orbit_uncertainty" : "8",
      "minimum_orbit_intersection" : ".0463391",
      "jupiter_tisserand_invariant" : "3.064",
      "epoch_osculation" : "2453617.5",
      "eccentricity" : ".6644816863244455",
      "semi_major_axis" : "2.578566916990027",
      "inclination" : "6.340204076308373",
      "ascending_node_longitude" : "141.4908004353794",
      "orbital_period" : "1512.397798160879",
      "perihelion_distance" : ".8651564236880674",
      "perihelion_argument" : "255.2103173924285",
      "aphelion_distance" : "4.291977410291987",
      "perihelion_time" : "2453658.384369963155",
      "mean_anomaly" : "350.26818658118",
      "mean_motion" : ".2380326131377412",
      "equinox" : "J2000",
      "orbit_class" : {
        "orbit_class_type" : "APO",
        "orbit_class_range" : "a (semi-major axis) > 1.0 AU; q (perihelion) < 1.017 AU",
        "orbit_class_description" : "Near-Earth asteroid orbits which cross the Earth’s orbit similar to that of 1862 Apollo"
      }
    },
    "is_sentry_object" : false
  } ]
}